{
  "type": "FeatureCollection",
  "features": [
    {
      "type": "Feature",
      "properties": {
        "id": 1,
        "name": "Nardorster Straße"
      },
      "geometry": {
        "type": "LineString",
        "coordinates": [
          [
            8.214629888534546,
            53.14783206046108
          ],
          [
            8.217102885246277,
            53.15114577496833
          ],
          [
            8.219361305236816,
            53.154459233767156
          ]
        ]
      }
    },
    {
      "type": "Feature",
      "properties": {
        "id": 2,
        "name": "Steubenstraße"
      },
      "geometry": {
        "type": "LineString",
        "coordinates": [
          [
            8.217102885246277,
            53.15114577496833
          ],
          [
            8.218642473220825,
            53.151068565112865
          ],
          [
            8.218095302581787,
            53.14870716331464
          ]
        ]
      }
    },
    {
      "type": "Feature",
      "properties": {
        "id": 3,
        "name": "Kriegerstraße"
      },
      "geometry": {
        "type": "LineString",
        "coordinates": [
          [
            8.216797113418579,
            53.150714684832224
          ],
          [
            8.217387199401855,
            53.1506632110939
          ],
          [
            8.216947317123413,
            53.14846265107725
          ],
          [
            8.217065334320068,
            53.148333959866825
          ]
        ]
      }
    },
    {
      "type": "Feature",
      "properties": {
        "id": 4,
        "name": "Ehnernstraße"
      },
      "geometry": {
        "type": "LineString",
        "coordinates": [
          [
            8.216636180877686,
            53.15053452647813
          ],
          [
            8.215434551239014,
            53.15074685588734
          ],
          [
            8.21554183959961,
            53.151126472517475
          ],
          [
            8.2157564163208,
            53.151782750978654
          ],
          [
            8.216561079025269,
            53.15262560370027
          ],
          [
            8.216646909713745,
            53.152702810755954
          ],
          [
            8.216646909713745,
            53.152857224450855
          ],
          [
            8.216646909713745,
            53.15298590210573
          ],
          [
            8.218181133270264,
            53.15272211249818
          ]
        ]
      }
    },
    {
      "type": "Feature",
      "properties": {
        "id": 5,
        "name": "Kleine Gasse"
      },
      "geometry": {
        "coordinates": [
          [
            8.216174483073587,
            53.152194548100056
          ],
          [
            8.216687187452294,
            53.15209671838963
          ]
        ],
        "type": "LineString"
      }
    },
    {
      "type": "Feature",
      "properties": {
        "id": 6,
        "name": "Bürgereschstraße"
      },
      "geometry": {
        "coordinates": [
          [
            8.218184517286574,
            53.15272911365048
          ],
          [
            8.219600280514413,
            53.152543938102326
          ]
        ],
        "type": "LineString"
      }
    }
  ]
}
